NORAD_CAT_ID,OBJECT_NAME,OBJECT_TYPE,EPOCH,MEAN_MOTION,ECCENTRICITY,INCLINATION,RA_OF_ASC_NODE,ARG_OF_PERICENTER,MEAN_ANOMALY,BSTAR,MEAN_MOTION_DOT,MEAN_MOTION_DDOT,TLE_LINE0,TLE_LINE1,TLE_LINE2,SEMIMAJOR_AXIS,PERIOD,APOGEE,PERIGEE,DECAYED
56776.0,STARLINK-6274,PAYLOAD,2024-05-07 13:58:56,14.98329199,0.0002963,70.0005,216.7387,266.6942,93.3878,-4.868e-05,-6.74e-06,0.0,0 STARLINK-6274,1 56776U 23078K   24128.58260344 -.00000674  00000-0 -48680-4 0  9999,2 56776  70.0005 216.7387 0002963 266.6942  93.3878 14.98329199 52644,6950.195,96.107,574.12,570.001,0.0
56776.0,STARLINK-6274,PAYLOAD,2024-05-07 15:35:04,14.98328682,0.0003028,70.0004,216.5693,269.3743,90.707,-2.7147e-05,-4.17e-06,0.0,0 STARLINK-6274,1 56776U 23078K   24128.64936325 -.00000417  00000-0 -27147-4 0  9995,2 56776  70.0004 216.5693 0003028 269.3743  90.7070 14.98328682 52655,6950.197,96.107,574.166,569.957,0.0
56776.0,STARLINK-6274,PAYLOAD,2024-05-08 12:24:49,14.98341509,0.0002853,70.0007,214.3807,269.08,91.0032,-7.3381e-05,-9.69e-06,0.0,0 STARLINK-6274,1 56776U 23078K   24129.51723440 -.00000969  00000-0 -73381-4 0  9997,2 56776  70.0007 214.3807 0002853 269.0800  91.0032 14.98341509 53046,6950.157,96.106,574.005,570.039,0.0
56776.0,STARLINK-6274,PAYLOAD,2024-05-08 14:00:57,14.98341138,0.0002863,70.0007,214.2124,269.2978,90.7853,-7.6057e-05,-1.001e-05,0.0,0 STARLINK-6274,1 56776U 23078K   24129.58399427 -.00001001  00000-0 -76057-4 0  9999,2 56776  70.0007 214.2124 0002863 269.2978  90.7853 14.98341138 52792,6950.158,96.106,574.013,570.034,0.0
56776.0,STARLINK-6274,PAYLOAD,2024-05-08 15:37:05,14.9834198,0.0002853,70.0008,214.0441,269.2137,90.8695,-6.2499e-05,-8.39e-06,0.0,0 STARLINK-6274,1 56776U 23078K   24129.65075292 -.00000839  00000-0 -62499-4 0  9991,2 56776  70.0008 214.0441 0002853 269.2137  90.8695 14.98341980 52801,6950.156,96.106,574.004,570.038,0.0
56776.0,STARLINK-6274,PAYLOAD,2024-05-09 12:26:50,14.98327729,0.0002705,70.0012,211.8585,264.2984,95.7866,5.4016e-05,5.52e-06,0.0,0 STARLINK-6274,1 56776U 23078K   24130.51863688  .00000552  00000-0  54016-4 0  9998,2 56776  70.0012 211.8585 0002705 264.2984  95.7866 14.98327729 53193,6950.2,96.107,573.945,570.185,0.0
56776.0,STARLINK-6274,PAYLOAD,2024-05-09 14:02:58,14.98327995,0.0002698,70.0013,211.6902,264.4617,95.6234,5.6124e-05,5.77e-06,0.0,0 STARLINK-6274,1 56776U 23078K   24130.58539673  .00000577  00000-0  56124-4 0  9998,2 56776  70.0013 211.6902 0002698 264.4617  95.6234 14.98327995 52946,6950.199,96.107,573.939,570.189,0.0
56776.0,STARLINK-6274,PAYLOAD,2024-05-09 15:39:06,14.98328267,0.0002702,70.0012,211.5218,264.6687,95.4163,5.7205e-05,5.9e-06,0.0,0 STARLINK-6274,1 56776U 23078K   24130.65215658  .00000590  00000-0  57205-4 0  9996,2 56776  70.0012 211.5218 0002702 264.6687  95.4163 14.98328267 52952,6950.198,96.107,573.941,570.185,0.0
56776.0,STARLINK-6274,PAYLOAD,2024-05-10 12:28:50,14.98334434,0.0002718,70.0013,209.3335,266.1824,93.9024,-5.4687e-06,-1.58e-06,0.0,0 STARLINK-6274,1 56776U 23078K   24131.52003395 -.00000158  00000-0 -54687-5 0  9990,2 56776  70.0013 209.3335 0002718 266.1824  93.9024 14.98334434 53341,6950.179,96.107,573.933,570.155,0.0
56776.0,STARLINK-6274,PAYLOAD,2024-05-10 14:04:58,14.98335618,0.0002702,70.0014,209.1653,266.0627,94.0223,8.423e-06,8e-08,0.0,0 STARLINK-6274,1 56776U 23078K   24131.58679257  .00000008  00000-0  84230-5 0  9991,2 56776  70.0014 209.1653 0002702 266.0627  94.0223 14.98335618 53096,6950.176,96.107,573.918,570.163,0.0
56776.0,STARLINK-6274,PAYLOAD,2024-05-10 15:41:06,14.98335995,0.0002698,70.0014,208.997,266.0295,94.0555,1.2857e-05,6e-07,0.0,0 STARLINK-6274,1 56776U 23078K   24131.65355197  .00000060  00000-0  12857-4 0  9996,2 56776  70.0014 208.9970 0002698 266.0295  94.0555 14.98335995 53108,6950.174,96.107,573.915,570.164,0.0
56776.0,STARLINK-6274,PAYLOAD,2024-05-11 04:30:10,14.98341517,0.0002815,70.0012,207.6495,272.2291,87.8546,0.00010548,1.166e-05,0.0,0 STARLINK-6274,1 56776U 23078K   24132.18762317  .00001166  00000-0  10548-3 0  9993,2 56776  70.0012 207.6495 0002815 272.2291  87.8546 14.98341517 53444,6950.157,96.106,573.979,570.066,0.0
56776.0,STARLINK-6274,PAYLOAD,2024-05-11 12:30:47,14.98382571,0.0002891,70.0004,206.8064,271.6003,88.4824,0.00052033,6.129e-05,0.0,0 STARLINK-6274,1 56776U 23078K   24132.52137996  .00006129  00000-0  52033-3 0  9999,2 56776  70.0004 206.8064 0002891 271.6003  88.4824 14.98382571 53492,6950.03,96.104,573.905,569.886,0.0
56776.0,STARLINK-6274,PAYLOAD,2024-05-11 14:06:54,14.98391383,0.0002792,70.0011,206.6393,270.7988,89.2851,0.00061509,7.265e-05,0.0,0 STARLINK-6274,1 56776U 23078K   24132.58812938  .00007265  00000-0  61509-3 0  9991,2 56776  70.0011 206.6393 0002792 270.7988  89.2851 14.98391383 53507,6950.003,96.103,573.809,569.928,0.0
56776.0,STARLINK-6274,PAYLOAD,2024-05-11 22:07:41,14.98308725,0.0002395,70.0012,205.7979,271.1584,88.93,-0.00029514,-3.611e-05,0.0,0 STARLINK-6274,1 56776U 23078K   24132.92200426 -.00003611  00000-0 -29514-3 0  9995,2 56776  70.0012 205.7979 0002395 271.1584  88.9300 14.98308725 53293,6950.259,96.108,573.788,570.459,0.0
56776.0,STARLINK-6274,PAYLOAD,2024-05-12 04:32:18,14.98255035,0.0002475,70.0006,205.1242,265.2698,94.8179,-0.00089928,-0.00010785,0.0,0 STARLINK-6274,1 56776U 23078K   24133.18910029 -.00010785  00000-0 -89928-3 0  9996,2 56776  70.0006 205.1242 0002475 265.2698  94.8179 14.98255035 53590,6950.425,96.112,574.01,570.569,0.0
56776.0,STARLINK-6274,PAYLOAD,2024-05-12 14:09:08,14.98245208,0.0002669,70.0003,204.1141,264.2305,95.855,-0.00092492,-0.00011087,0.0,0 STARLINK-6274,1 56776U 23078K   24133.58968493 -.00011087  00000-0 -92492-3 0  9994,2 56776  70.0003 204.1141 0002669 264.2305  95.8550 14.98245208 53396,6950.455,96.112,574.175,570.465,0.0
56776.0,STARLINK-6274,PAYLOAD,2024-05-12 22:09:46,14.98284092,0.0002987,70.0008,203.2718,256.4374,103.6452,-0.00048875,-5.913e-05,0.0,0 STARLINK-6274,1 56776U 23078K   24133.92346011 -.00005913  00000-0 -48875-3 0  9995,2 56776  70.0008 203.2718 0002987 256.4374 103.6452 14.98284092 53442,6950.335,96.11,574.276,570.124,0.0
56776.0,STARLINK-6274,PAYLOAD,2024-05-13 10:58:48,14.98342001,0.0002054,70.0006,201.9245,252.387,107.7065,-0.00021206,-2.623e-05,0.0,0 STARLINK-6274,1 56776U 23078K   24134.45750681 -.00002623  00000-0 -21206-3 0  9990,2 56776  70.0006 201.9245 0002054 252.3870 107.7065 14.98342001 53788,6950.156,96.106,573.448,570.593,0.0
56776.0,STARLINK-6274,PAYLOAD,2024-05-14 04:36:18,14.98285685,0.0002023,70.0005,200.0735,253.2751,106.8186,0.00094648,0.00011205,0.0,0 STARLINK-6274,1 56776U 23078K   24135.19187595  .00011205  00000-0  94648-3 0  9994,2 56776  70.0005 200.0735 0002023 253.2751 106.8186 14.98285685 53895,6950.33,96.11,573.601,570.789,0.0
56776.0,STARLINK-6274,PAYLOAD,2024-05-14 11:00:50,14.98293453,0.0002013,70.0002,199.4007,249.1693,110.925,0.00097144,0.00011506,0.0,0 STARLINK-6274,1 56776U 23078K   24135.45891740  .00011506  00000-0  97144-3 0  9995,2 56776  70.0002 199.4007 0002013 249.1693 110.9250 14.98293453 53679,6950.306,96.109,573.57,570.772,0.0
56776.0,STARLINK-6274,PAYLOAD,2024-05-15 04:38:17,14.98361702,0.0001903,70.0002,197.5492,250.4896,109.6057,0.00024599,2.846e-05,0.0,0 STARLINK-6274,1 56776U 23078K   24136.19325810  .00002846  00000-0  24599-3 0  9998,2 56776  70.0002 197.5492 0001903 250.4896 109.6057 14.98361702 54048,6950.095,96.105,573.282,570.637,0.0
56776.0,STARLINK-6274,PAYLOAD,2024-05-15 12:38:56,14.98371873,0.0001927,70.0002,196.7083,249.8811,110.2141,0.0003011,3.505e-05,0.0,0 STARLINK-6274,1 56776U 23078K   24136.52704227  .00003505  00000-0  30110-3 0  9997,2 56776  70.0002 196.7083 0001927 249.8811 110.2141 14.98371873 54097,6950.063,96.104,573.268,570.589,0.0
56776.0,STARLINK-6274,PAYLOAD,2024-05-15 14:15:04,14.98373051,0.0001897,70.0004,196.54,249.3668,110.7287,0.0003082,3.59e-05,0.0,0 STARLINK-6274,1 56776U 23078K   24136.59379953  .00003590  00000-0  30820-3 0  9990,2 56776  70.0004 196.5400 0001897 249.3668 110.7287 14.98373051 53849,6950.06,96.104,573.243,570.606,0.0
56776.0,STARLINK-6274,PAYLOAD,2024-05-15 20:39:35,14.9842691,0.0001733,70.0031,195.8646,272.9104,87.1857,-0.00089576,-0.00010791,0.0,0 STARLINK-6274,1 56776U 23078K   24136.86082270 -.00010791  00000-0 -89576-3 0  9998,2 56776  70.0031 195.8646 0001733 272.9104  87.1857 14.98426910 54146,6949.893,96.101,572.963,570.554,0.0
56776.0,STARLINK-6274,PAYLOAD,2024-05-16 04:40:17,14.98349142,0.0002045,70.0005,195.0257,254.6031,105.4902,-0.00011956,-1.52e-05,0.0,0 STARLINK-6274,1 56776U 23078K   24137.19465252 -.00001520  00000-0 -11956-3 0  9997,2 56776  70.0005 195.0257 0002045 254.6031 105.4902 14.98349142 54191,6950.134,96.106,573.42,570.577,0.0
56776.0,STARLINK-6274,PAYLOAD,2024-05-16 11:04:49,14.9835456,0.0001779,70.0008,194.354,234.5097,125.5896,-0.00015331,-1.923e-05,0.0,0 STARLINK-6274,1 56776U 23078K   24137.46168534 -.00001923  00000-0 -15331-3 0  9998,2 56776  70.0008 194.3540 0001779 234.5097 125.5896 14.98354560 53973,6950.117,96.105,573.218,570.746,0.0
56776.0,STARLINK-6274,PAYLOAD,2024-05-16 20:41:37,14.98354497,0.0001993,69.9999,193.3408,266.753,93.3401,-0.00017633,-2.197e-05,0.0,0 STARLINK-6274,1 56776U 23078K   24137.86224009 -.00002197  00000-0 -17633-3 0  9993,2 56776  69.9999 193.3408 0001993 266.7530  93.3401 14.98354497 54039,6950.117,96.105,573.367,570.597,0.0
56776.0,STARLINK-6274,PAYLOAD,2024-05-17 04:42:18,14.98333889,0.0001451,70.0017,192.5002,258.0426,102.0571,1.0576e-05,3.3e-07,0.0,0 STARLINK-6274,1 56776U 23078K   24138.19604268  .00000033  00000-0  10576-4 0  9994,2 56776  70.0017 192.5002 0001451 258.0426 102.0571 14.98333889 54343,6950.181,96.107,573.054,571.037,0.0
56776.0,STARLINK-6274,PAYLOAD,2024-05-17 11:06:50,14.9834231,0.0001737,70.0008,191.8287,252.147,107.9499,-0.00034885,-4.254e-05,0.0,0 STARLINK-6274,1 56776U 23078K   24138.46308578 -.00004254  00000-0 -34885-3 0  9998,2 56776  70.0008 191.8287 0001737 252.1470 107.9499 14.98342310 54129,6950.155,96.106,573.227,570.813,0.0
